[{"OBJECT_NAME":"STARLINK-5985","OBJECT_ID":"2023-064D","EPOCH":"2026-03-09T15:14:30.592320","MEAN_MOTION":14.98288528,"ECCENTRICITY":0.0003571,"INCLINATION":70.0003,"RA_OF_ASC_NODE":144.767,"ARG_OF_PERICENTER":269.1599,"MEAN_ANOMALY":90.9151,"EPHEMERIS_TYPE":0,"CLASSIFICATION_TYPE":"U","NORAD_CAT_ID":56451,"ELEMENT_SET_NO":999,"REV_AT_EPOCH":15523,"BSTAR":-0.00049622,"MEAN_MOTION_DOT":-6.003e-5,"MEAN_MOTION_DDOT":0},{"OBJECT_NAME":"LEMUR-2-EMERSONROSE","OBJECT_ID":"2025-052BD","EPOCH":"2026-03-09T22:41:34.308672","MEAN_MOTION":14.98235234,"ECCENTRICITY":0.00026118,"INCLINATION":97.701,"RA_OF_ASC_NODE":323.5746,"ARG_OF_PERICENTER":47.547,"MEAN_ANOMALY":312.5973,"EPHEMERIS_TYPE":0,"CLASSIFICATION_TYPE":"U","NORAD_CAT_ID":63261,"ELEMENT_SET_NO":999,"REV_AT_EPOCH":5387,"BSTAR":0.00054278878,"MEAN_MOTION_DOT":6.392e-5,"MEAN_MOTION_DDOT":0}]
